[
    {
        "Altitude(m)": 558590.4592875579,
        "Argument of Periapsis(deg)": 0.026491964442854003,
        "Eccentricity": 0.0,
        "Inclination(deg)": 53.0,
        "Latitude(deg)": 47.40858367265681,
        "Longitude(deg)": -167.795462265926,
        "Mean Anomaly(deg)": 113.09367147031038,
        "RAAN(deg)": 169.96057347411207,
        "Satellite Name": "Starlink Shell 1 752",
        "Satellite Number": 752,
        "Semi-Major Axis(m)": 6931778.249405717,
        "Time(s)": 760
    },
    {
        "Altitude(m)": 558523.6460263355,
        "Argument of Periapsis(deg)": 0.02684054292236524,
        "Eccentricity": 0.0,
        "Inclination(deg)": 53.0,
        "Latitude(deg)": 47.11538501368403,
        "Longitude(deg)": -167.02206854090576,
        "Mean Anomaly(deg)": 113.72050267386705,
        "RAAN(deg)": 169.9600547040346,
        "Satellite Name": "Starlink Shell 1 752",
        "Satellite Number": 752,
        "Semi-Major Axis(m)": 6931778.249405717,
        "Time(s)": 770
    },
    {
        "Altitude(m)": 558455.6022116524,
        "Argument of Periapsis(deg)": 0.027189121401876473,
        "Eccentricity": 0.0,
        "Inclination(deg)": 53.0,
        "Latitude(deg)": 46.81644211892365,
        "Longitude(deg)": -166.2576541539342,
        "Mean Anomaly(deg)": 114.34733387742378,
        "RAAN(deg)": 169.95953593395714,
        "Satellite Name": "Starlink Shell 1 752",
        "Satellite Number": 752,
        "Semi-Major Axis(m)": 6931778.249405717,
        "Time(s)": 780
    },
    {
        "Altitude(m)": 558386.3699260546,
        "Argument of Periapsis(deg)": 0.02753769988138771,
        "Eccentricity": 0.0,
        "Inclination(deg)": 53.0,
        "Latitude(deg)": 46.511876225553586,
        "Longitude(deg)": -165.50219531474644,
        "Mean Anomaly(deg)": 114.97416508098051,
        "RAAN(deg)": 169.95901716387965,
        "Satellite Name": "Starlink Shell 1 752",
        "Satellite Number": 752,
        "Semi-Major Axis(m)": 6931778.249405717,
        "Time(s)": 790
    },
    {
        "Altitude(m)": 558315.9920600589,
        "Argument of Periapsis(deg)": 0.02788627836089895,
        "Eccentricity": 0.0,
        "Inclination(deg)": 53.0,
        "Latitude(deg)": 46.20180750548788,
        "Longitude(deg)": -164.75565962309997,
        "Mean Anomaly(deg)": 115.60099628453719,
        "RAAN(deg)": 169.9584983938022,
        "Satellite Name": "Starlink Shell 1 752",
        "Satellite Number": 752,
        "Semi-Major Axis(m)": 6931778.249405717,
        "Time(s)": 800
    },
    {
        "Altitude(m)": 558244.5122908667,
        "Argument of Periapsis(deg)": 0.02823485684041019,
        "Eccentricity": 0.0,
        "Inclination(deg)": 53.0,
        "Latitude(deg)": 45.886354953474616,
        "Longitude(deg)": -164.0180061133902,
        "Mean Anomaly(deg)": 116.22782748809391,
        "RAAN(deg)": 169.95797962372473,
        "Satellite Name": "Starlink Shell 1 752",
        "Satellite Number": 752,
        "Semi-Major Axis(m)": 6931778.249405717,
        "Time(s)": 810
    },
    {
        "Altitude(m)": 558171.9750606327,
        "Argument of Periapsis(deg)": 0.028583435319921423,
        "Eccentricity": 0.0,
        "Inclination(deg)": 53.0,
        "Latitude(deg)": 45.56563628531028,
        "Longitude(deg)": -163.28918529082452,
        "Mean Anomaly(deg)": 116.85465869165061,
        "RAAN(deg)": 169.95746085364723,
        "Satellite Name": "Starlink Shell 1 752",
        "Satellite Number": 752,
        "Semi-Major Axis(m)": 6931778.249405717,
        "Time(s)": 820
    },
    {
        "Altitude(m)": 558098.4255543791,
        "Argument of Periapsis(deg)": 0.028932013799432665,
        "Eccentricity": 0.0,
        "Inclination(deg)": 53.0,
        "Latitude(deg)": 45.23976784582838,
        "Longitude(deg)": -162.56914066996586,
        "Mean Anomaly(deg)": 117.48148989520737,
        "RAAN(deg)": 169.95694208356977,
        "Satellite Name": "Starlink Shell 1 752",
        "Satellite Number": 752,
        "Semi-Major Axis(m)": 6931778.249405717,
        "Time(s)": 830
    },
    {
        "Altitude(m)": 558023.9096774755,
        "Argument of Periapsis(deg)": 0.029280592278943897,
        "Eccentricity": 0.0,
        "Inclination(deg)": 53.0,
        "Latitude(deg)": 44.908864526286315,
        "Longitude(deg)": -161.85780878811104,
        "Mean Anomaly(deg)": 118.10832109876408,
        "RAAN(deg)": 169.9564233134923,
        "Satellite Name": "Starlink Shell 1 752",
        "Satellite Number": 752,
        "Semi-Major Axis(m)": 6931778.249405717,
        "Time(s)": 840
    },
    {
        "Altitude(m)": 557948.4740327606,
        "Argument of Periapsis(deg)": 0.029629170758455132,
        "Eccentricity": 0.0,
        "Inclination(deg)": 53.0,
        "Latitude(deg)": 44.57303969076097,
        "Longitude(deg)": -161.15511920484232,
        "Mean Anomaly(deg)": 118.7351523023208,
        "RAAN(deg)": 169.95590454341482,
        "Satellite Name": "Starlink Shell 1 752",
        "Satellite Number": 752,
        "Semi-Major Axis(m)": 6931778.249405717,
        "Time(s)": 850
    },
    {
        "Altitude(m)": 557872.1658972959,
        "Argument of Periapsis(deg)": 0.02997774923796637,
        "Eccentricity": 0.0,
        "Inclination(deg)": 53.0,
        "Latitude(deg)": 44.232405111148424,
        "Longitude(deg)": -160.4609961674307,
        "Mean Anomaly(deg)": 119.36198350587746,
        "RAAN(deg)": 169.95538577333735,
        "Satellite Name": "Starlink Shell 1 752",
        "Satellite Number": 752,
        "Semi-Major Axis(m)": 6931778.249405717,
        "Time(s)": 860
    },
    {
        "Altitude(m)": 557795.0331987272,
        "Argument of Periapsis(deg)": 0.030326327717477602,
        "Eccentricity": 0.0,
        "Inclination(deg)": 53.0,
        "Latitude(deg)": 43.887070910341706,
        "Longitude(deg)": -159.77535773860288,
        "Mean Anomaly(deg)": 119.9888147094342,
        "RAAN(deg)": 169.9548670032599,
        "Satellite Name": "Starlink Shell 1 752",
        "Satellite Number": 752,
        "Semi-Major Axis(m)": 6931778.249405717,
        "Time(s)": 870
    },
    {
        "Altitude(m)": 557717.1244913336,
        "Argument of Periapsis(deg)": 0.030674906196988847,
        "Eccentricity": 0.0,
        "Inclination(deg)": 53.0,
        "Latitude(deg)": 43.53714551317067,
        "Longitude(deg)": -159.09811742872876,
        "Mean Anomaly(deg)": 120.61564591299091,
        "RAAN(deg)": 169.9543482331824,
        "Satellite Name": "Starlink Shell 1 752",
        "Satellite Number": 752,
        "Semi-Major Axis(m)": 6931778.249405717,
        "Time(s)": 880
    },
    {
        "Altitude(m)": 557638.4889316951,
        "Argument of Periapsis(deg)": 0.031023484676500086,
        "Eccentricity": 0.0,
        "Inclination(deg)": 53.0,
        "Latitude(deg)": 43.18273560466818,
        "Longitude(deg)": -158.42918412934577,
        "Mean Anomaly(deg)": 121.24247711654765,
        "RAAN(deg)": 169.95382946310494,
        "Satellite Name": "Starlink Shell 1 752",
        "Satellite Number": 752,
        "Semi-Major Axis(m)": 6931778.249405717,
        "Time(s)": 890
    },
    {
        "Altitude(m)": 557559.1762540854,
        "Argument of Periapsis(deg)": 0.03137206315601132,
        "Eccentricity": 0.0,
        "Inclination(deg)": 53.0,
        "Latitude(deg)": 42.823946095238156,
        "Longitude(deg)": -157.76846202851183,
        "Mean Anomaly(deg)": 121.86930832010438,
        "RAAN(deg)": 169.95331069302748,
        "Satellite Name": "Starlink Shell 1 752",
        "Satellite Number": 752,
        "Semi-Major Axis(m)": 6931778.249405717,
        "Time(s)": 900
    },
    {
        "Altitude(m)": 557479.2367454851,
        "Argument of Periapsis(deg)": 0.03172064163552255,
        "Eccentricity": 0.0,
        "Inclination(deg)": 53.0,
        "Latitude(deg)": 42.46088009230569,
        "Longitude(deg)": -157.11585202054295,
        "Mean Anomaly(deg)": 122.49613952366106,
        "RAAN(deg)": 169.95279192294998,
        "Satellite Name": "Starlink Shell 1 752",
        "Satellite Number": 752,
        "Semi-Major Axis(m)": 6931778.249405717,
        "Time(s)": 910
    },
    {
        "Altitude(m)": 557398.7212203193,
        "Argument of Periapsis(deg)": 0.0320692201150338,
        "Eccentricity": 0.0,
        "Inclination(deg)": 53.0,
        "Latitude(deg)": 42.093638878025146,
        "Longitude(deg)": -156.4712515842166,
        "Mean Anomaly(deg)": 123.12297072721779,
        "RAAN(deg)": 169.95227315287252,
        "Satellite Name": "Starlink Shell 1 752",
        "Satellite Number": 752,
        "Semi-Major Axis(m)": 6931778.249405717,
        "Time(s)": 920
    },
    {
        "Altitude(m)": 557317.6809949193,
        "Argument of Periapsis(deg)": 0.032417798594545036,
        "Eccentricity": 0.0,
        "Inclination(deg)": 53.0,
        "Latitude(deg)": 41.72232189264134,
        "Longitude(deg)": -155.834554642278,
        "Mean Anomaly(deg)": 123.7498019307745,
        "RAAN(deg)": 169.95175438279506,
        "Satellite Name": "Starlink Shell 1 752",
        "Satellite Number": 752,
        "Semi-Major Axis(m)": 6931778.249405717,
        "Time(s)": 930
    },
    {
        "Altitude(m)": 557236.167861647,
        "Argument of Periapsis(deg)": 0.03276637707405627,
        "Eccentricity": 0.0,
        "Inclination(deg)": 53.0,
        "Latitude(deg)": 41.3470267231078,
        "Longitude(deg)": -155.20565291519432,
        "Mean Anomaly(deg)": 124.37663313433124,
        "RAAN(deg)": 169.95123561271757,
        "Satellite Name": "Starlink Shell 1 752",
        "Satellite Number": 752,
        "Semi-Major Axis(m)": 6931778.249405717,
        "Time(s)": 940
    }
]